start=new Date('2022-07-19T00:00:00.000Z').valueOf();
sats=[{"REF_FRAME":"TEME","RCS_SIZE":"LARGE","REV_AT_EPOCH":"130","DECAY_DATE":null,"BSTAR":"-0.00192660000000","CLASSIFICATION_TYPE":"U","GP_ID":"208407860","MEAN_ANOMALY":"56.3259","NORAD_CAT_ID":"48880","TIME_SYSTEM":"UTC","EPOCH":"2022-07-18T22:00:00.999936","MEAN_MOTION_DOT":"-0.00025799","MEAN_MOTION_DDOT":"0.0000000000000","CENTER_NAME":"EARTH","SEMIMAJOR_AXIS":"6936.104","LAUNCH_DATE":"2021-06-30","ECCENTRICITY":"0.00019570","EPHEMERIS_TYPE":"0","SITE":"AFETR","PERIOD":"95.815","RA_OF_ASC_NODE":"329.5543","PERIAPSIS":"556.612","TLE_LINE1":"1 48880U 21059B   22199.91667824 -.00025799  00000-0 -19266-2 0  9991","OBJECT_NAME":"STARLINK-3004","OBJECT_TYPE":"PAYLOAD","TLE_LINE2":"2 48880  97.5151 329.5543 0001957  97.2160  56.3259 15.02897438  1307","APOAPSIS":"559.327","ELEMENT_SET_NO":"999","ARG_OF_PERICENTER":"97.2160","FILE":"3517175","MEAN_ELEMENT_THEORY":"SGP4","OBJECT_ID":"2021-059B","INCLINATION":"97.5151","COUNTRY_CODE":"US","MEAN_MOTION":"15.02897438"},{"MEAN_MOTION_DDOT":"0.0000000000000","MEAN_MOTION_DOT":"-0.00025168","TIME_SYSTEM":"UTC","EPOCH":"2022-07-18T22:00:00.999936","ECCENTRICITY":"0.00018120","LAUNCH_DATE":"2021-06-30","SEMIMAJOR_AXIS":"6936.078","CENTER_NAME":"EARTH","SITE":"AFETR","EPHEMERIS_TYPE":"0","PERIAPSIS":"556.686","RA_OF_ASC_NODE":"329.6040","PERIOD":"95.814","REV_AT_EPOCH":"130","DECAY_DATE":null,"REF_FRAME":"TEME","RCS_SIZE":"LARGE","GP_ID":"208408110","CLASSIFICATION_TYPE":"U","BSTAR":"-0.00187880000000","NORAD_CAT_ID":"48881","MEAN_ANOMALY":"104.7833","ELEMENT_SET_NO":"999","APOAPSIS":"559.199","INCLINATION":"97.5104","MEAN_ELEMENT_THEORY":"SGP4","OBJECT_ID":"2021-059C","ARG_OF_PERICENTER":"71.8404","FILE":"3517175","COUNTRY_CODE":"US","MEAN_MOTION":"15.02906093","OBJECT_NAME":"STARLINK-3005","OBJECT_TYPE":"PAYLOAD","TLE_LINE1":"1 48881U 21059C   22199.91667824 -.00025168  00000-0 -18788-2 0  9990","TLE_LINE2":"2 48881  97.5104 329.6040 0001812  71.8404 104.7833 15.02906093  1302"},{"REF_FRAME":"TEME","RCS_SIZE":"LARGE","DECAY_DATE":null,"REV_AT_EPOCH":"4776","MEAN_ANOMALY":"101.0910","NORAD_CAT_ID":"49131","BSTAR":"-0.00010232000000","GP_ID":"208408138","CLASSIFICATION_TYPE":"U","CENTER_NAME":"EARTH","LAUNCH_DATE":"2021-09-14","SEMIMAJOR_AXIS":"6950.166","ECCENTRICITY":"0.00032330","MEAN_MOTION_DOT":"-0.00001314","EPOCH":"2022-07-18T20:02:30.403968","TIME_SYSTEM":"UTC","MEAN_MOTION_DDOT":"0.0000000000000","RA_OF_ASC_NODE":"7.4846","PERIOD":"96.106","PERIAPSIS":"569.784","SITE":"AFWTR","EPHEMERIS_TYPE":"0","OBJECT_TYPE":"PAYLOAD","OBJECT_NAME":"STARLINK-3096","TLE_LINE1":"1 49131U 21082B   22199.83507412 -.00001314  00000-0 -10232-3 0  9996","TLE_LINE2":"2 49131  69.9979   7.4846 0003233 258.9886 101.0910 14.98338592 47763","MEAN_ELEMENT_THEORY":"SGP4","OBJECT_ID":"2021-082B","ARG_OF_PERICENTER":"258.9886","FILE":"3517175","INCLINATION":"69.9979","APOAPSIS":"574.278","ELEMENT_SET_NO":"999","MEAN_MOTION":"14.98338592","COUNTRY_CODE":"US"},{"APOAPSIS":"574.018","ELEMENT_SET_NO":"999","FILE":"3517175","ARG_OF_PERICENTER":"253.9068","OBJECT_ID":"2021-082C","MEAN_ELEMENT_THEORY":"SGP4","INCLINATION":"69.9991","COUNTRY_CODE":"US","MEAN_MOTION":"14.98331425","TLE_LINE1":"1 49132U 21082C   22199.86786272 -.00001374  00000-0 -10740-3 0  9993","OBJECT_TYPE":"PAYLOAD","OBJECT_NAME":"STARLINK-3090","TLE_LINE2":"2 49132  69.9991  47.3932 0002826 253.9068 106.1780 14.98331425 46781","TIME_SYSTEM":"UTC","EPOCH":"2022-07-18T20:49:43.339008","MEAN_MOTION_DOT":"-0.00001374","MEAN_MOTION_DDOT":"0.0000000000000","CENTER_NAME":"EARTH","LAUNCH_DATE":"2021-09-14","ECCENTRICITY":"0.00028260","SEMIMAJOR_AXIS":"6950.188","EPHEMERIS_TYPE":"0","SITE":"AFWTR","PERIOD":"96.107","RA_OF_ASC_NODE":"47.3932","PERIAPSIS":"570.089","REF_FRAME":"TEME","RCS_SIZE":"LARGE","REV_AT_EPOCH":"4678","DECAY_DATE":null,"BSTAR":"-0.00010740000000","CLASSIFICATION_TYPE":"U","GP_ID":"208408390","MEAN_ANOMALY":"106.1780","NORAD_CAT_ID":"49132"},{"RCS_SIZE":"LARGE","REF_FRAME":"TEME","DECAY_DATE":null,"REV_AT_EPOCH":"4678","MEAN_ANOMALY":"103.6006","NORAD_CAT_ID":"49133","BSTAR":"0.00010386000000","GP_ID":"208408628","CLASSIFICATION_TYPE":"U","CENTER_NAME":"EARTH","ECCENTRICITY":"0.00032840","LAUNCH_DATE":"2021-09-14","SEMIMAJOR_AXIS":"6950.174","MEAN_MOTION_DOT":"0.00001147","TIME_SYSTEM":"UTC","EPOCH":"2022-07-18T20:42:50.535360","MEAN_MOTION_DDOT":"0.0000000000000","RA_OF_ASC_NODE":"47.4174","PERIOD":"96.107","PERIAPSIS":"569.757","SITE":"AFWTR","EPHEMERIS_TYPE":"0","OBJECT_NAME":"STARLINK-3077","OBJECT_TYPE":"PAYLOAD","TLE_LINE1":"1 49133U 21082D   22199.86308490  .00001147  00000-0  10386-3 0  9998","TLE_LINE2":"2 49133  69.9996  47.4174 0003284 256.4787 103.6006 14.98335955 46786","OBJECT_ID":"2021-082D","MEAN_ELEMENT_THEORY":"SGP4","FILE":"3517175","ARG_OF_PERICENTER":"256.4787","INCLINATION":"69.9996","APOAPSIS":"574.322","ELEMENT_SET_NO":"999","MEAN_MOTION":"14.98335955","COUNTRY_CODE":"US"},{"DECAY_DATE":null,"REV_AT_EPOCH":"4798","REF_FRAME":"TEME","RCS_SIZE":"LARGE","CLASSIFICATION_TYPE":"U","GP_ID":"208407389","BSTAR":"0.00001671800000","NORAD_CAT_ID":"49134","MEAN_ANOMALY":"96.0849","MEAN_MOTION_DDOT":"0.0000000000000","MEAN_MOTION_DOT":"0.00000106","EPOCH":"2022-07-18T20:35:58.909344","TIME_SYSTEM":"UTC","LAUNCH_DATE":"2021-09-14","ECCENTRICITY":"0.00030490","SEMIMAJOR_AXIS":"6950.199","CENTER_NAME":"EARTH","SITE":"AFWTR","EPHEMERIS_TYPE":"0","PERIAPSIS":"569.945","RA_OF_ASC_NODE":"47.4275","PERIOD":"96.107","OBJECT_TYPE":"PAYLOAD","OBJECT_NAME":"STARLINK-3078","TLE_LINE1":"1 49134U 21082E   22199.85832071  .00000106  00000-0  16718-4 0  9995","TLE_LINE2":"2 49134  70.0003  47.4275 0003049 263.9963  96.0849 14.98328119 47986","ELEMENT_SET_NO":"999","APOAPSIS":"574.183","INCLINATION":"70.0003","MEAN_ELEMENT_THEORY":"SGP4","OBJECT_ID":"2021-082E","FILE":"3517175","ARG_OF_PERICENTER":"263.9963","COUNTRY_CODE":"US","MEAN_MOTION":"14.98328119"},{"OBJECT_TYPE":"PAYLOAD","OBJECT_NAME":"STARLINK-3073","TLE_LINE1":"1 49135U 21082F   22199.87976661 -.00001929  00000-0 -16065-3 0  9992","TLE_LINE2":"2 49135  69.9983   6.8563 0003278 265.1519  94.9265 14.96699875 47791","OBJECT_ID":"2021-082F","MEAN_ELEMENT_THEORY":"SGP4","ARG_OF_PERICENTER":"265.1519","FILE":"3517175","INCLINATION":"69.9983","APOAPSIS":"579.383","ELEMENT_SET_NO":"999","MEAN_MOTION":"14.96699875","COUNTRY_CODE":"US","REF_FRAME":"TEME","RCS_SIZE":"LARGE","REV_AT_EPOCH":"4779","DECAY_DATE":null,"MEAN_ANOMALY":"94.9265","NORAD_CAT_ID":"49135","BSTAR":"-0.00016065000000","GP_ID":"208407639","CLASSIFICATION_TYPE":"U","CENTER_NAME":"EARTH","LAUNCH_DATE":"2021-09-14","SEMIMAJOR_AXIS":"6955.238","ECCENTRICITY":"0.00032780","MEAN_MOTION_DOT":"-0.00001929","TIME_SYSTEM":"UTC","EPOCH":"2022-07-18T21:06:51.835104","MEAN_MOTION_DDOT":"0.0000000000000","RA_OF_ASC_NODE":"6.8563","PERIOD":"96.212","PERIAPSIS":"574.824","SITE":"AFWTR","EPHEMERIS_TYPE":"0"},{"APOAPSIS":"579.281","ELEMENT_SET_NO":"999","MEAN_ELEMENT_THEORY":"SGP4","OBJECT_ID":"2021-082G","ARG_OF_PERICENTER":"249.8745","FILE":"3517175","INCLINATION":"70.0001","COUNTRY_CODE":"US","MEAN_MOTION":"14.96719788","OBJECT_NAME":"STARLINK-3084","OBJECT_TYPE":"PAYLOAD","TLE_LINE1":"1 49136U 21082G   22199.84956253  .00001218  00000-0  11440-3 0  9996","TLE_LINE2":"2 49136  70.0001  27.1860 0003220 249.8745 110.2067 14.96719788 47292","MEAN_MOTION_DOT":"0.00001218","EPOCH":"2022-07-18T20:23:22.202592","TIME_SYSTEM":"UTC","MEAN_MOTION_DDOT":"0.0000000000000","CENTER_NAME":"EARTH","LAUNCH_DATE":"2021-09-14","ECCENTRICITY":"0.00032200","SEMIMAJOR_AXIS":"6955.177","SITE":"AFWTR","EPHEMERIS_TYPE":"0","RA_OF_ASC_NODE":"27.1860","PERIOD":"96.210","PERIAPSIS":"574.802","REF_FRAME":"TEME","RCS_SIZE":"LARGE","REV_AT_EPOCH":"4729","DECAY_DATE":null,"BSTAR":"0.00011440000000","GP_ID":"208408890","CLASSIFICATION_TYPE":"U","MEAN_ANOMALY":"110.2067","NORAD_CAT_ID":"49136"},{"CLASSIFICATION_TYPE":"U","GP_ID":"208409128","BSTAR":"-0.00002001800000","NORAD_CAT_ID":"49137","MEAN_ANOMALY":"103.3072","DECAY_DATE":null,"REV_AT_EPOCH":"4728","REF_FRAME":"TEME","RCS_SIZE":"LARGE","SITE":"AFWTR","EPHEMERIS_TYPE":"0","PERIAPSIS":"574.977","RA_OF_ASC_NODE":"27.2105","PERIOD":"96.211","MEAN_MOTION_DDOT":"0.0000000000000","MEAN_MOTION_DOT":"-0.00000321","EPOCH":"2022-07-18T20:18:33.584256","TIME_SYSTEM":"UTC","LAUNCH_DATE":"2021-09-14","ECCENTRICITY":"0.00030110","SEMIMAJOR_AXIS":"6955.206","CENTER_NAME":"EARTH","TLE_LINE2":"2 49137  70.0006  27.2105 0003011 256.7750 103.3072 14.96710413 47286","OBJECT_NAME":"STARLINK-3055","OBJECT_TYPE":"PAYLOAD","TLE_LINE1":"1 49137U 21082H   22199.84622204 -.00000321  00000-0 -20018-4 0  9991","COUNTRY_CODE":"US","MEAN_MOTION":"14.96710413","ELEMENT_SET_NO":"999","APOAPSIS":"579.165","INCLINATION":"70.0006","OBJECT_ID":"2021-082H","MEAN_ELEMENT_THEORY":"SGP4","ARG_OF_PERICENTER":"256.7750","FILE":"3517175"},{"TLE_LINE1":"1 49138U 21082J   22199.85355846 -.00000613  00000-0 -43553-4 0  9991","OBJECT_TYPE":"PAYLOAD","OBJECT_NAME":"STARLINK-3058","TLE_LINE2":"2 49138  70.0011  47.4381 0002928 249.0223 111.0622 14.98328732 46781","APOAPSIS":"574.097","ELEMENT_SET_NO":"999","FILE":"3517175","ARG_OF_PERICENTER":"249.0223","OBJECT_ID":"2021-082J","MEAN_ELEMENT_THEORY":"SGP4","INCLINATION":"70.0011","COUNTRY_CODE":"US","MEAN_MOTION":"14.98328732","RCS_SIZE":"LARGE","REF_FRAME":"TEME","REV_AT_EPOCH":"4678","DECAY_DATE":null,"BSTAR":"-0.00004355300000","CLASSIFICATION_TYPE":"U","GP_ID":"208407889","MEAN_ANOMALY":"111.0622","NORAD_CAT_ID":"49138","TIME_SYSTEM":"UTC","EPOCH":"2022-07-18T20:29:07.450944","MEAN_MOTION_DOT":"-0.00000613","MEAN_MOTION_DDOT":"0.0000000000000","CENTER_NAME":"EARTH","SEMIMAJOR_AXIS":"6950.197","LAUNCH_DATE":"2021-09-14","ECCENTRICITY":"0.00029280","EPHEMERIS_TYPE":"0","SITE":"AFWTR","PERIOD":"96.107","RA_OF_ASC_NODE":"47.4381","PERIAPSIS":"570.027"}];
